STARLINK-5484           
1 55628U 23021A   23074.58334491 -.01261092  00000+0 -16619-1 0  9993
2 55628  70.0006  77.4407 0003298 271.7720 320.4378 15.61162918  1309
STARLINK-5497           
1 55629U 23021B   23074.58334491 -.01262925  00000+0 -16662-1 0  9998
2 55629  70.0015  77.4392 0003317 270.8294 320.4631 15.61137886  1309
STARLINK-5303           
1 55630U 23021C   23074.58334491 -.01258219  00000+0 -16561-1 0  9999
2 55630  70.0010  77.4381 0003294 270.8697 322.2563 15.61187466  1308
STARLINK-5558           
1 55631U 23021D   23074.58334491 -.01261761  00000+0 -16511-1 0  9991
2 55631  70.0013  77.4307 0003325 271.1720 327.4309 15.61345865  1300
STARLINK-5546           
1 55632U 23021E   23074.58334491 -.01261472  00000+0 -16574-1 0  9990
2 55632  70.0011  77.4349 0003318 271.7904 323.1651 15.61241253  1306
STARLINK-5498           
1 55633U 23021F   23074.58334491 -.01258426  00000+0 -16514-1 0  9990
2 55633  70.0010  77.4338 0003295 269.5631 326.3063 15.61265458  1305
STARLINK-5500           
1 55634U 23021G   23074.58334491 -.01260149  00000+0 -16572-1 0  9990
2 55634  70.0011  77.4360 0003306 269.8614 324.1802 15.61214310  1307
STARLINK-5495           
1 55635U 23021H   23074.53151256  .00000822  00000+0  86062-5 0  9994
2 55635  70.0011  77.5120 0003317 270.6890  89.3925 15.69925655  4893
STARLINK-5218           
1 55636U 23021J   23074.58334491 -.01261147  00000+0 -16519-1 0  9992
2 55636  70.0011  77.4317 0003313 269.7480 327.9445 15.61319533  1306
STARLINK-5062           
1 55637U 23021K   23074.53140362  .00005878  00000+0  50595-4 0  9999
2 55637  70.0011  77.5118 0003309 266.0046  94.0772 15.69936341  4892
STARLINK-5507           
1 55638U 23021L   23074.58334491 -.01258833  00000+0 -16503-1 0  9995
2 55638  70.0013  77.4328 0003301 271.0243 325.7574 15.61291857  1309
STARLINK-5508           
1 55639U 23021M   23074.53088130  .00003897  00000+0  34159-4 0  9992
2 55639  70.0014  77.5100 0002727 279.4904  80.5983 15.69927788  4891
STARLINK-5069           
1 55640U 23021N   23074.53045863  .00002062  00000+0  18912-4 0  9992
2 55640  69.9997  77.5081 0003602 264.7637  95.3148 15.69924119  4893
STARLINK-5065           
1 55641U 23021P   23074.53098199  .00003217  00000+0  28504-4 0  9994
2 55641  70.0007  77.5102 0003301 269.3296  90.7522 15.69933124  4892
STARLINK-5478           
1 55642U 23021Q   23074.53182495  .00008654  00000+0  73632-4 0  9990
2 55642  70.0003  77.5140 0003396 267.4231  92.6576 15.69935657  4896
STARLINK-5483           
1 55643U 23021R   23074.53066780  .00001635  00000+0  15358-4 0  9992
2 55643  70.0001  77.5099 0003435 264.6014  95.4790 15.69928342  4892
STARLINK-5502           
1 55644U 23021S   23074.53119474  .00001784  00000+0  16595-4 0  9991
2 55644  70.0012  77.5111 0003319 273.6044  86.4772 15.69928863  4892
STARLINK-5102           
1 55645U 23021T   23074.52992902 -.00001027  00000+0 -67687-5 0  9997
2 55645  70.0007  77.5054 0003514 271.9800  88.0994 15.69923801  4892
STARLINK-5104           
1 55646U 23021U   23074.53161718  .00001681  00000+0  15744-4 0  9992
2 55646  70.0003  77.5132 0003744 276.7132  83.3638 15.69927317  4891
STARLINK-5510           
1 55647U 23021V   23074.53013603  .00004900  00000+0  42472-4 0  9997
2 55647  70.0009  77.5069 0003529 264.2891  95.7902 15.69937075  4895
STARLINK-5501           
1 55648U 23021W   23074.53108939  .00001723  00000+0  16091-4 0  9993
2 55648  70.0012  77.5098 0003041 268.2983  91.7864 15.69929131  4894
STARLINK-5469           
1 55649U 23021X   23074.53035511  .00002141  00000+0  19567-4 0  9995
2 55649  70.0014  77.5050 0002577 275.1450  84.9452 15.69926764  4890
STARLINK-5494           
1 55650U 23021Y   23074.53077681  .00001174  00000+0  11531-4 0  9999
2 55650  70.0006  77.5095 0003424 259.2115 100.8695 15.69922354  4893
STARLINK-5506           
1 55651U 23021Z   23074.53130130  .00001734  00000+0  16180-4 0  9996
2 55651  70.0010  77.5111 0003226 272.6267  87.4559 15.69929500  4894
STARLINK-5487           
1 55652U 23021AA  23074.53056118  .00000653  00000+0  71948-5 0  9993
2 55652  70.0003  77.5093 0003287 271.9775  88.1044 15.69929901  4891
STARLINK-5067           
1 55653U 23021AB  23074.53003651 -.00002340  00000+0 -17692-4 0  9990
2 55653  69.9990  77.5067 0003028 274.6401  85.4449 15.69936830  4892
STARLINK-5070           
1 55654U 23021AC  23074.53172043  .00005265  00000+0  45505-4 0  9994
2 55654  70.0018  77.5129 0003393 264.2778  95.8031 15.69934534  4894
STARLINK-5267           
1 55655U 23021AD  23074.52929786  .00001115  00000+0  11043-4 0  9998
2 55655  70.0011  77.5032 0003385 274.7467  85.3342 15.69927502  4899
STARLINK-5326           
1 55656U 23021AE  23074.52982327  .00012259  00000+0  10351-3 0  9990
2 55656  70.0015  77.5059 0003082 271.0615  89.0227 15.69938852  4895
STARLINK-5328           
1 55657U 23021AF  23074.52950988  .00000988  00000+0  99849-5 0  9996
2 55657  69.9996  77.5054 0003691 273.1436  86.9337 15.69924139  4897
STARLINK-5307           
1 55658U 23021AG  23074.53025032  .00003216  00000+0  28509-4 0  9992
2 55658  70.0002  77.5073 0003150 263.9011  96.1826 15.69922011  4899
STARLINK-5477           
1 55659U 23021AH  23074.52940523 -.00000585  00000+0 -31022-5 0  9996
2 55659  70.0017  77.5034 0002772 268.0071  92.0807 15.69924281  4899
STARLINK-5467           
1 55660U 23021AJ  23074.52971915 -.00002817  00000+0 -21650-4 0  9992
2 55660  69.9979  77.5046 0003325 267.8396  92.2419 15.69941412  4896
STARLINK-5475           
1 55661U 23021AK  23074.52909151  .00001363  00000+0  13105-4 0  9995
2 55661  70.0001  77.5023 0003090 274.8246  85.2597 15.69918033  4894
STARLINK-5479           
1 55662U 23021AL  23074.52961653  .00001089  00000+0  10827-4 0  9994
2 55662  69.9997  77.5035 0003412 269.7318  90.3487 15.69921925  4899
STARLINK-5473           
1 55663U 23021AM  23074.52856037  .00000286  00000+0  41456-5 0  9995
2 55663  70.0001  77.5017 0003909 269.5048  90.5700 15.69925291  4898
STARLINK-5480           
1 55664U 23021AN  23074.52918254  .00004858  00000+0  42114-4 0  9996
2 55664  70.0007  77.5024 0003480 264.0178  96.0621 15.69944845  4890
STARLINK-5474           
1 55665U 23021AP  23074.52887664  .00001682  00000+0  15755-4 0  9990
2 55665  69.9996  77.5019 0003306 267.4352  92.6465 15.69926560  4899
STARLINK-5457           
1 55666U 23021AQ  23074.58334491  .00203453  00000+0  77473-3 0  9996
2 55666  69.9921  76.6145 0002934 258.7561 307.4701 15.86860356  1301
STARLINK-5456           
1 55667U 23021AR  23074.52845356  .00001019  00000+0  10245-4 0  9997
2 55667  70.0014  77.5003 0003363 273.2051  86.8760 15.69926701  4892
STARLINK-5455           
1 55668U 23021AS  23074.52898406  .00001656  00000+0  15538-4 0  9999
2 55668  70.0004  77.5016 0003053 261.6454  98.4395 15.69923794  4892
STARLINK-5459           
1 55669U 23021AT  23074.52866614  .00002136  00000+0  19526-4 0  9991
2 55669  70.0010  77.5006 0003240 262.8547  97.2280 15.69926119  4897
STARLINK-5423           
1 55670U 23021AU  23074.52834856  .00002951  00000+0  26296-4 0  9993
2 55670  70.0009  77.4994 0003447 269.3305  90.7496 15.69930863  4893
STARLINK-5460           
1 55671U 23021AV  23074.52771525  .00004427  00000+0  38550-4 0  9993
2 55671  70.0014  77.4964 0003155 257.1704 102.9139 15.69934696  4899
STARLINK-5461           
1 55672U 23021AW  23074.52782910  .00004940  00000+0  42851-4 0  9993
2 55672  69.9985  77.4986 0003628 277.4583  82.6200 15.69909202  4891
STARLINK-5463           
1 55673U 23021AX  23074.52814166  .00002376  00000+0  21523-4 0  9997
2 55673  70.0012  77.4984 0002953 259.7604 100.3259 15.69927827  4896
STARLINK-5462           
1 55674U 23021AY  23074.52792225 -.00012715  00000+0 -10418-3 0  9999
2 55674  70.0012  77.4982 0003317 273.5837  86.4979 15.69914823  4897
STARLINK-5232           
1 55675U 23021AZ  23074.52824438  .00001782  00000+0  16582-4 0  9991
2 55675  70.0016  77.4995 0003304 273.6934  86.3884 15.69928549  4895
STARLINK-5300           
1 55676U 23021BA  23074.52761212  .00001257  00000+0  12216-4 0  9999
2 55676  70.0007  77.4962 0003437 273.3627  86.7176 15.69927513  4891
STARLINK-5324           
1 55677U 23021BB  23074.52750640  .00035738  00000+0  29714-3 0  9994
2 55677  70.0016  77.4963 0003651 259.2968 100.7817 15.69969875  4898
STARLINK-5314           
1 55678U 23021BC  23074.52803519  .00001924  00000+0  17770-4 0  9999
2 55678  69.9981  77.4985 0003520 264.4419  95.6375 15.69921463  4897
INMARSAT 6-F2           
1 55683U 23022A   23074.25189851 -.00000285  00000+0 -27706-1 0  9990
2 55683  24.4123  46.1054 7386716 176.3935 196.3821  1.82667000   423
FALCON 9 R/B            
1 55684U 23022B   23073.87791980  .00016259  00000+0  23364-2 0  9993
2 55684  27.0525  44.8841 7584376 177.9315 190.1089  1.92805228   457
DRUMS TARGET-1          
1 55685U 21102M   23074.10997941  .00026494  00000+0  18349-2 0  9992
2 55685  97.4994 130.3324 0020332  20.1483 340.0535 15.05454397  3733
CHINASAT 26 (ZX 26)     
1 55686U 23023A   23073.86438529 -.00000354  00000+0  00000+0 0  9991
2 55686   0.0414  28.5460 0003534  30.2908 189.6519  1.00270445   308
CZ-3B R/B               
1 55687U 23023B   23069.75308738  .00057108 -91208-7  42213-2 0  9995
2 55687  27.9076 321.4012 7211681 188.6842 143.2418  2.39702510   372
SOYUZ-MS 23             
1 55688U 23024A   23073.36569740  .00019001  00000+0  34864-3 0  9996
2 55688  51.6403  78.2673 0005725  83.4155  57.2753 15.49281621387085
HORUS 1                 
1 55690U 23025A   23074.67399914  .00014481  00000+0  60745-3 0  9993
2 55690  97.4696 148.4986 0012567 170.4430 292.9554 15.23521091  2959
CZ-2C R/B               
1 55691U 23025B   23074.59516320  .00013433  00000+0  62785-3 0  9999
2 55691  97.5993 148.7318 0065947 214.9301 144.7597 15.17952743  2938
